start=new Date('2022-12-16T00:00:00.000Z').valueOf();
sats=[{"PERIOD":"95.592","RA_OF_ASC_NODE":"23.2513","SITE":"AFETR","MEAN_MOTION_DDOT":"0.0000000000000","INCLINATION":"53.0561","MEAN_ELEMENT_THEORY":"SGP4","PERIAPSIS":"545.830","RCS_SIZE":"LARGE","MEAN_MOTION":"15.06406177","ECCENTRICITY":"0.00019700","TLE_LINE1":"1 46033U 20055G   22349.82286875  .00000642  00000-0  61997-4 0  9992","LAUNCH_DATE":"2020-08-07","OBJECT_ID":"2020-055G","MEAN_ANOMALY":"315.5068","CLASSIFICATION_TYPE":"U","TIME_SYSTEM":"UTC","COUNTRY_CODE":"US","CENTER_NAME":"EARTH","REF_FRAME":"TEME","NORAD_CAT_ID":"46033","OBJECT_TYPE":"PAYLOAD","GP_ID":"220525603","TLE_LINE2":"2 46033  53.0561  23.2513 0001970  44.6079 315.5068 15.06406177131034","REV_AT_EPOCH":"13103","ARG_OF_PERICENTER":"44.6079","EPHEMERIS_TYPE":"0","FILE":"3702726","MEAN_MOTION_DOT":"0.00000642","APOAPSIS":"548.559","DECAY_DATE":null,"SEMIMAJOR_AXIS":"6925.330","ELEMENT_SET_NO":"999","BSTAR":"0.00006199700000","OBJECT_NAME":"STARLINK-1556","EPOCH":"2022-12-15T19:44:55.860000"},{"REF_FRAME":"TEME","NORAD_CAT_ID":"46034","COUNTRY_CODE":"US","CENTER_NAME":"EARTH","OBJECT_TYPE":"PAYLOAD","GP_ID":"220524354","TLE_LINE2":"2 46034  53.0560  23.2232 0001649  50.4258 309.6876 15.06404692131030","MEAN_MOTION_DOT":"0.00001741","FILE":"3702726","DECAY_DATE":null,"APOAPSIS":"548.341","REV_AT_EPOCH":"13103","EPHEMERIS_TYPE":"0","ARG_OF_PERICENTER":"50.4258","BSTAR":"0.00013575000000","OBJECT_NAME":"STARLINK-1557","EPOCH":"2022-12-15T19:50:14.175744","SEMIMAJOR_AXIS":"6925.334","ELEMENT_SET_NO":"999","MEAN_MOTION_DDOT":"0.0000000000000","SITE":"AFETR","RA_OF_ASC_NODE":"23.2232","PERIOD":"95.592","INCLINATION":"53.0560","PERIAPSIS":"546.057","MEAN_ELEMENT_THEORY":"SGP4","TLE_LINE1":"1 46034U 20055H   22349.82655296  .00001741  00000-0  13575-3 0  9999","ECCENTRICITY":"0.00016490","LAUNCH_DATE":"2020-08-07","OBJECT_ID":"2020-055H","MEAN_MOTION":"15.06404692","RCS_SIZE":"LARGE","TIME_SYSTEM":"UTC","MEAN_ANOMALY":"309.6876","CLASSIFICATION_TYPE":"U"},{"MEAN_MOTION":"15.06402975","RCS_SIZE":"LARGE","TLE_LINE1":"1 46035U 20055J   22349.83392594  .00000641  00000-0  61927-4 0  9993","LAUNCH_DATE":"2020-08-07","ECCENTRICITY":"0.00015470","OBJECT_ID":"2020-055J","MEAN_ANOMALY":"302.4884","CLASSIFICATION_TYPE":"U","TIME_SYSTEM":"UTC","RA_OF_ASC_NODE":"23.1863","PERIOD":"95.592","SITE":"AFETR","MEAN_MOTION_DDOT":"0.0000000000000","INCLINATION":"53.0559","MEAN_ELEMENT_THEORY":"SGP4","PERIAPSIS":"546.133","ARG_OF_PERICENTER":"57.6254","EPHEMERIS_TYPE":"0","REV_AT_EPOCH":"13106","FILE":"3702726","MEAN_MOTION_DOT":"0.00000641","DECAY_DATE":null,"APOAPSIS":"548.276","ELEMENT_SET_NO":"999","SEMIMAJOR_AXIS":"6925.339","OBJECT_NAME":"STARLINK-1558","BSTAR":"0.00006192700000","EPOCH":"2022-12-15T20:00:51.201216","CENTER_NAME":"EARTH","COUNTRY_CODE":"US","REF_FRAME":"TEME","NORAD_CAT_ID":"46035","OBJECT_TYPE":"PAYLOAD","TLE_LINE2":"2 46035  53.0559  23.1863 0001547  57.6254 302.4884 15.06402975131065","GP_ID":"220524604"},{"SITE":"AFETR","MEAN_MOTION_DDOT":"0.0000000000000","RA_OF_ASC_NODE":"22.9788","PERIOD":"95.591","INCLINATION":"53.0547","MEAN_ELEMENT_THEORY":"SGP4","PERIAPSIS":"545.761","TLE_LINE1":"1 46036U 20055K   22349.88552777  .00000517  00000-0  53629-4 0  9992","ECCENTRICITY":"0.00020280","LAUNCH_DATE":"2020-08-07","OBJECT_ID":"2020-055K","MEAN_MOTION":"15.06415662","RCS_SIZE":"LARGE","TIME_SYSTEM":"UTC","MEAN_ANOMALY":"319.3931","CLASSIFICATION_TYPE":"U","REF_FRAME":"TEME","NORAD_CAT_ID":"46036","CENTER_NAME":"EARTH","COUNTRY_CODE":"US","OBJECT_TYPE":"PAYLOAD","GP_ID":"220505159","TLE_LINE2":"2 46036  53.0547  22.9788 0002028  40.7209 319.3931 15.06415662130554","FILE":"3702710","MEAN_MOTION_DOT":"0.00000517","APOAPSIS":"548.570","DECAY_DATE":null,"ARG_OF_PERICENTER":"40.7209","EPHEMERIS_TYPE":"0","REV_AT_EPOCH":"13055","OBJECT_NAME":"STARLINK-1560","BSTAR":"0.00005362900000","EPOCH":"2022-12-15T21:15:09.599328","ELEMENT_SET_NO":"999","SEMIMAJOR_AXIS":"6925.301"},{"OBJECT_TYPE":"PAYLOAD","TLE_LINE2":"2 46037  53.0546  23.2874 0001639  50.0826 310.0307 15.06407192131050","GP_ID":"220526104","COUNTRY_CODE":"US","CENTER_NAME":"EARTH","REF_FRAME":"TEME","NORAD_CAT_ID":"46037","ELEMENT_SET_NO":"999","SEMIMAJOR_AXIS":"6925.327","OBJECT_NAME":"STARLINK-1565","BSTAR":"0.00012874000000","EPOCH":"2022-12-15T19:34:18.714432","ARG_OF_PERICENTER":"50.0826","EPHEMERIS_TYPE":"0","REV_AT_EPOCH":"13105","FILE":"3702726","MEAN_MOTION_DOT":"0.00001637","APOAPSIS":"548.327","DECAY_DATE":null,"INCLINATION":"53.0546","PERIAPSIS":"546.056","MEAN_ELEMENT_THEORY":"SGP4","PERIOD":"95.592","RA_OF_ASC_NODE":"23.2874","SITE":"AFETR","MEAN_MOTION_DDOT":"0.0000000000000","MEAN_ANOMALY":"310.0307","CLASSIFICATION_TYPE":"U","TIME_SYSTEM":"UTC","RCS_SIZE":"LARGE","MEAN_MOTION":"15.06407192","ECCENTRICITY":"0.00016390","TLE_LINE1":"1 46037U 20055L   22349.81549438  .00001637  00000-0  12874-3 0  9996","LAUNCH_DATE":"2020-08-07","OBJECT_ID":"2020-055L"},{"RA_OF_ASC_NODE":"24.6933","PERIOD":"95.592","SITE":"AFETR","MEAN_MOTION_DDOT":"0.0000000000000","INCLINATION":"53.0565","MEAN_ELEMENT_THEORY":"SGP4","PERIAPSIS":"545.848","MEAN_MOTION":"15.06401255","RCS_SIZE":"LARGE","LAUNCH_DATE":"2020-08-07","TLE_LINE1":"1 46038U 20055M   22349.49851146  .00000767  00000-0  70375-4 0  9997","ECCENTRICITY":"0.00019660","OBJECT_ID":"2020-055M","MEAN_ANOMALY":"309.0722","CLASSIFICATION_TYPE":"U","TIME_SYSTEM":"UTC","COUNTRY_CODE":"US","CENTER_NAME":"EARTH","REF_FRAME":"TEME","NORAD_CAT_ID":"46038","OBJECT_TYPE":"PAYLOAD","GP_ID":"220505213","TLE_LINE2":"2 46038  53.0565  24.6933 0001966  51.0442 309.0722 15.06401255130491","EPHEMERIS_TYPE":"0","ARG_OF_PERICENTER":"51.0442","REV_AT_EPOCH":"13049","MEAN_MOTION_DOT":"0.00000767","FILE":"3702713","APOAPSIS":"548.571","DECAY_DATE":null,"ELEMENT_SET_NO":"999","SEMIMAJOR_AXIS":"6925.345","OBJECT_NAME":"STARLINK-1567","BSTAR":"0.00007037500000","EPOCH":"2022-12-15T11:57:51.390144"},{"NORAD_CAT_ID":"46039","REF_FRAME":"TEME","COUNTRY_CODE":"US","CENTER_NAME":"EARTH","GP_ID":"220525103","TLE_LINE2":"2 46039  53.0559  23.1684 0002281  53.9106 306.2094 15.06404602131054","OBJECT_TYPE":"PAYLOAD","DECAY_DATE":null,"APOAPSIS":"548.779","FILE":"3702726","MEAN_MOTION_DOT":"0.00002969","REV_AT_EPOCH":"13105","EPHEMERIS_TYPE":"0","ARG_OF_PERICENTER":"53.9106","EPOCH":"2022-12-15T20:06:10.014624","BSTAR":"0.00021810000000","OBJECT_NAME":"STARLINK-1569","SEMIMAJOR_AXIS":"6925.334","ELEMENT_SET_NO":"999","MEAN_MOTION_DDOT":"0.0000000000000","SITE":"AFETR","PERIOD":"95.592","RA_OF_ASC_NODE":"23.1684","MEAN_ELEMENT_THEORY":"SGP4","PERIAPSIS":"545.620","INCLINATION":"53.0559","OBJECT_ID":"2020-055N","TLE_LINE1":"1 46039U 20055N   22349.83761591  .00002969  00000-0  21810-3 0  9995","LAUNCH_DATE":"2020-08-07","ECCENTRICITY":"0.00022810","RCS_SIZE":"LARGE","MEAN_MOTION":"15.06404602","TIME_SYSTEM":"UTC","CLASSIFICATION_TYPE":"U","MEAN_ANOMALY":"306.2094"},{"REF_FRAME":"TEME","NORAD_CAT_ID":"46040","COUNTRY_CODE":"US","CENTER_NAME":"EARTH","OBJECT_TYPE":"PAYLOAD","GP_ID":"220483997","TLE_LINE2":"2 46040  53.0578  25.1257 0001815  48.8934 311.2211 15.06383226130952","FILE":"3702025","MEAN_MOTION_DOT":"-0.00001208","DECAY_DATE":null,"APOAPSIS":"548.522","REV_AT_EPOCH":"13095","EPHEMERIS_TYPE":"0","ARG_OF_PERICENTER":"48.8934","BSTAR":"-0.00006221600000","OBJECT_NAME":"STARLINK-1576","EPOCH":"2022-12-15T09:39:52.674336","SEMIMAJOR_AXIS":"6925.400","ELEMENT_SET_NO":"999","MEAN_MOTION_DDOT":"0.0000000000000","SITE":"AFETR","RA_OF_ASC_NODE":"25.1257","PERIOD":"95.593","INCLINATION":"53.0578","MEAN_ELEMENT_THEORY":"SGP4","PERIAPSIS":"546.008","ECCENTRICITY":"0.00018150","TLE_LINE1":"1 46040U 20055P   22349.40269299 -.00001208  00000-0 -62216-4 0  9991","LAUNCH_DATE":"2020-08-07","OBJECT_ID":"2020-055P","MEAN_MOTION":"15.06383226","RCS_SIZE":"LARGE","TIME_SYSTEM":"UTC","MEAN_ANOMALY":"311.2211","CLASSIFICATION_TYPE":"U"},{"DECAY_DATE":null,"APOAPSIS":"548.650","MEAN_MOTION_DOT":"-0.00000041","FILE":"3702025","REV_AT_EPOCH":"13096","ARG_OF_PERICENTER":"42.7444","EPHEMERIS_TYPE":"0","EPOCH":"2022-12-15T09:55:47.069472","BSTAR":"0.00001616200000","OBJECT_NAME":"STARLINK-1580","SEMIMAJOR_AXIS":"6925.371","ELEMENT_SET_NO":"999","NORAD_CAT_ID":"46041","REF_FRAME":"TEME","COUNTRY_CODE":"US","CENTER_NAME":"EARTH","GP_ID":"220484247","TLE_LINE2":"2 46041  53.0566  25.1628 0002042  42.7444 317.3703 15.06392619130964","OBJECT_TYPE":"PAYLOAD","OBJECT_ID":"2020-055Q","TLE_LINE1":"1 46041U 20055Q   22349.41373923 -.00000041  00000-0  16162-4 0  9995","LAUNCH_DATE":"2020-08-07","ECCENTRICITY":"0.00020420","MEAN_MOTION":"15.06392619","RCS_SIZE":"LARGE","TIME_SYSTEM":"UTC","CLASSIFICATION_TYPE":"U","MEAN_ANOMALY":"317.3703","SITE":"AFETR","MEAN_MOTION_DDOT":"0.0000000000000","PERIOD":"95.593","RA_OF_ASC_NODE":"25.1628","PERIAPSIS":"545.822","MEAN_ELEMENT_THEORY":"SGP4","INCLINATION":"53.0566"},{"MEAN_MOTION_DDOT":"0.0000000000000","SITE":"AFETR","RA_OF_ASC_NODE":"25.2079","PERIOD":"95.592","MEAN_ELEMENT_THEORY":"SGP4","PERIAPSIS":"545.923","INCLINATION":"53.0572","OBJECT_ID":"2020-055R","TLE_LINE1":"1 46042U 20055R   22349.38792910  .00000621  00000-0  60566-4 0  9993","LAUNCH_DATE":"2020-08-07","ECCENTRICITY":"0.00018470","RCS_SIZE":"LARGE","MEAN_MOTION":"15.06403665","TIME_SYSTEM":"UTC","CLASSIFICATION_TYPE":"U","MEAN_ANOMALY":"306.0235","NORAD_CAT_ID":"46042","REF_FRAME":"TEME","COUNTRY_CODE":"US","CENTER_NAME":"EARTH","TLE_LINE2":"2 46042  53.0572  25.2079 0001847  54.0925 306.0235 15.06403665130953","GP_ID":"220484999","OBJECT_TYPE":"PAYLOAD","DECAY_DATE":null,"APOAPSIS":"548.481","MEAN_MOTION_DOT":"0.00000621","FILE":"3702025","REV_AT_EPOCH":"13095","ARG_OF_PERICENTER":"54.0925","EPHEMERIS_TYPE":"0","EPOCH":"2022-12-15T09:18:37.074240","BSTAR":"0.00006056600000","OBJECT_NAME":"STARLINK-1581","SEMIMAJOR_AXIS":"6925.337","ELEMENT_SET_NO":"999"}];
